STARLINK-32264
1 61642U 24191X   26092.83335647  .00158626  00000+0  40059-2 0  9991
2 61642  42.9994  19.7764 0012001 213.1583  19.9578 15.38436834  5806
